[{"OBJECT_NAME":"SDA_1682","OBJECT_ID":"2025-230U","EPOCH":"2026-03-09T17:20:30.180192","MEAN_MOTION":13.84602017,"ECCENTRICITY":0.00025922,"INCLINATION":81.3027,"RA_OF_ASC_NODE":304.0041,"ARG_OF_PERICENTER":76.4793,"MEAN_ANOMALY":283.6653,"EPHEMERIS_TYPE":0,"CLASSIFICATION_TYPE":"U","NORAD_CAT_ID":65992,"ELEMENT_SET_NO":999,"REV_AT_EPOCH":2004,"BSTAR":-0.02644498,"MEAN_MOTION_DOT":-0.0002955,"MEAN_MOTION_DDOT":0},{"OBJECT_NAME":"THOR ABLESTAR DEB","OBJECT_ID":"1961-015F","EPOCH":"2026-03-09T21:14:49.207200","MEAN_MOTION":14.00213553,"ECCENTRICITY":0.00862651,"INCLINATION":66.7467,"RA_OF_ASC_NODE":288.3629,"ARG_OF_PERICENTER":73.2015,"MEAN_ANOMALY":287.8509,"EPHEMERIS_TYPE":0,"CLASSIFICATION_TYPE":"U","NORAD_CAT_ID":121,"ELEMENT_SET_NO":999,"REV_AT_EPOCH":31246,"BSTAR":8.5197145e-5,"MEAN_MOTION_DOT":5.1e-7,"MEAN_MOTION_DDOT":0}]
